{"type": "FeatureCollection", "features": [ {"type": "Feature", "properties": {"norad_id": 44543, "name": "BEIDOU-3 M23 (C45)", "group": "beidou", "lat": 53.1087566989559, "lon": -64.10760731323333, "alt_km": 21517.47902738198, "timestamp": "2025-12-22T20:43:46.114270+00:00", "meta": {"OBJECT_NAME": "BEIDOU-3 M23 (C45)", "OBJECT_ID": "2019-061B", "EPOCH": "2025-12-22T04:16:38.631360", "MEAN_MOTION": 1.86227761, "ECCENTRICITY": 0.00060882, "INCLINATION": 54.3995, "RA_OF_ASC_NODE": 188.6659, "ARG_OF_PERICENTER": 26.1092, "MEAN_ANOMALY": 334.4978, "EPHEMERIS_TYPE": 0, "CLASSIFICATION_TYPE": "U", "NORAD_CAT_ID": 44543, "ELEMENT_SET_NO": 999, "REV_AT_EPOCH": 4250, "BSTAR": 0, "MEAN_MOTION_DOT": 9.4e-07, "MEAN_MOTION_DDOT": 0}, "tle": {"line1": "1 44543U 19061B   25356.17822490  .00000094  00000+0  00000+0 0  9992", "line2": "2 44543  54.3995 188.6659 0006088  26.1092 334.4978  1.86227761 42501"}}, "geometry": {"type": "Point", "coordinates": [-64.10760731323333, 53.1087566989559]}}, {"type": "Feature", "properties": {"norad_id": 44793, "name": "BEIDOU-3 M22 (C44)", "group": "beidou", "lat": -47.41698094022647, "lon": -105.92636269025668, "alt_km": 21533.040541676106, "timestamp": "2025-12-22T20:43:46.114281+00:00", "meta": {"OBJECT_NAME": "BEIDOU-3 M22 (C44)", "OBJECT_ID": "2019-078A", "EPOCH": "2025-12-21T21:17:38.154624", "MEAN_MOTION": 1.86232205, "ECCENTRICITY": 0.00060942, "INCLINATION": 54.1, "RA_OF_ASC_NODE": 306.0655, "ARG_OF_PERICENTER": 24.0092, "MEAN_ANOMALY": 336.0189, "EPHEMERIS_TYPE": 0, "CLASSIFICATION_TYPE": "U", "NORAD_CAT_ID": 44793, "ELEMENT_SET_NO": 999, "REV_AT_EPOCH": 4134, "BSTAR": 0, "MEAN_MOTION_DOT": -5.9e-07, "MEAN_MOTION_DDOT": 0}, "tle": {"line1": "1 44793U 19078A   25355.88724716 -.00000059  00000+0  00000+0 0  9998", "line2": "2 44793  54.1000 306.0655 0006094  24.0092 336.0189  1.86232205 41341"}}, "geometry": {"type": "Point", "coordinates": [-105.92636269025668, -47.41698094022647]}}, {"type": "Feature", "properties": {"norad_id": 44794, "name": "BEIDOU-3 M21 (C43)", "group": "beidou", "lat": -17.879521340785683, "lon": 139.48740657874748, "alt_km": 21542.652593561845, "timestamp": "2025-12-22T20:43:46.114292+00:00", "meta": {"OBJECT_NAME": "BEIDOU-3 M21 (C43)", "OBJECT_ID": "2019-078B", "EPOCH": "2025-12-22T00:36:11.320992", "MEAN_MOTION": 1.86227905, "ECCENTRICITY": 0.00042975, "INCLINATION": 54.0732, "RA_OF_ASC_NODE": 306.0255, "ARG_OF_PERICENTER": 12.7987, "MEAN_ANOMALY": 347.2125, "EPHEMERIS_TYPE": 0, "CLASSIFICATION_TYPE": "U", "NORAD_CAT_ID": 44794, "ELEMENT_SET_NO": 999, "REV_AT_EPOCH": 4135, "BSTAR": 0, "MEAN_MOTION_DOT": -5.8e-07, "MEAN_MOTION_DDOT": 0}, "tle": {"line1": "1 44794U 19078B   25356.02513103 -.00000058  00000+0  00000+0 0  9991", "line2": "2 44794  54.0732 306.0255 0004297  12.7987 347.2125  1.86227905 41355"}}, "geometry": {"type": "Point", "coordinates": [139.48740657874748, -17.879521340785683]}}, {"type": "Feature", "properties": {"norad_id": 44864, "name": "BEIDOU-3 M19 (C41)", "group": "beidou", "lat": 31.03935151687901, "lon": 92.19307704170151, "alt_km": 21544.299786025487, "timestamp": "2025-12-22T20:43:46.114303+00:00", "meta": {"OBJECT_NAME": "BEIDOU-3 M19 (C41)", "OBJECT_ID": "2019-090A", "EPOCH": "2025-12-22T06:47:40.337664", "MEAN_MOTION": 1.8623164, "ECCENTRICITY": 0.00183372, "INCLINATION": 56.4008, "RA_OF_ASC_NODE": 68.6452, "ARG_OF_PERICENTER": 285.1073, "MEAN_ANOMALY": 83.7045, "EPHEMERIS_TYPE": 0, "CLASSIFICATION_TYPE": "U", "NORAD_CAT_ID": 44864, "ELEMENT_SET_NO": 999, "REV_AT_EPOCH": 4094, "BSTAR": 0, "MEAN_MOTION_DOT": -2.9e-07, "MEAN_MOTION_DDOT": 0}, "tle": {"line1": "1 44864U 19090A   25356.28310576 -.00000029  00000+0  00000+0 0  9998", "line2": "2 44864  56.4008  68.6452 0018337 285.1073  83.7045  1.86231640 40945"}}, "geometry": {"type": "Point", "coordinates": [92.19307704170151, 31.03935151687901]}}, {"type": "Feature", "properties": {"norad_id": 44865, "name": "BEIDOU-3 M20 (C42)", "group": "beidou", "lat": 41.2664673060056, "lon": -146.94712722423228, "alt_km": 21565.425399803757, "timestamp": "2025-12-22T20:43:46.114318+00:00", "meta": {"OBJECT_NAME": "BEIDOU-3 M20 (C42)", "OBJECT_ID": "2019-090B", "EPOCH": "2025-12-22T03:27:20.583072", "MEAN_MOTION": 1.86231562, "ECCENTRICITY": 0.00154748, "INCLINATION": 56.4023, "RA_OF_ASC_NODE": 68.6841, "ARG_OF_PERICENTER": 297.2268, "MEAN_ANOMALY": 67.9266, "EPHEMERIS_TYPE": 0, "CLASSIFICATION_TYPE": "U", "NORAD_CAT_ID": 44865, "ELEMENT_SET_NO": 999, "REV_AT_EPOCH": 4092, "BSTAR": 0, "MEAN_MOTION_DOT": -3e-07, "MEAN_MOTION_DDOT": 0}, "tle": {"line1": "1 44865U 19090B   25356.14398823 -.00000030  00000+0  00000+0 0  9997", "line2": "2 44865  56.4023  68.6841 0015474 297.2268  67.9266  1.86231562 40924"}}, "geometry": {"type": "Point", "coordinates": [-146.94712722423228, 41.2664673060056]}}, {"type": "Feature", "properties": {"norad_id": 45344, "name": "BEIDOU-3 G2 (C60)", "group": "beidou", "lat": 2.488461858335236, "lon": 122.61887704257006, "alt_km": 35793.40983642062, "timestamp": "2025-12-22T20:43:46.114332+00:00", "meta": {"OBJECT_NAME": "BEIDOU-3 G2 (C60)", "OBJECT_ID": "2020-017A", "EPOCH": "2025-12-19T13:38:45.370752", "MEAN_MOTION": 1.00273166, "ECCENTRICITY": 0.0002079, "INCLINATION": 2.5096, "RA_OF_ASC_NODE": 44.0024, "ARG_OF_PERICENTER": 233.0917, "MEAN_ANOMALY": 96.0359, "EPHEMERIS_TYPE": 0, "CLASSIFICATION_TYPE": "U", "NORAD_CAT_ID": 45344, "ELEMENT_SET_NO": 999, "REV_AT_EPOCH": 2145, "BSTAR": 0, "MEAN_MOTION_DOT": -1.18e-06, "MEAN_MOTION_DDOT": 0}, "tle": {"line1": "1 45344U 20017A   25353.56858068 -.00000118  00000+0  00000+0 0  9993", "line2": "2 45344   2.5096  44.0024 0002079 233.0917  96.0359  1.00273166 21451"}}, "geometry": {"type": "Point", "coordinates": [122.61887704257006, 2.488461858335236]}}, {"type": "Feature", "properties": {"norad_id": 45807, "name": "BEIDOU-3 G3 (C61)", "group": "beidou", "lat": 2.025569081834768, "lon": 153.2074784029386, "alt_km": 35806.693070442416, "timestamp": "2025-12-22T20:43:46.114344+00:00", "meta": {"OBJECT_NAME": "BEIDOU-3 G3 (C61)", "OBJECT_ID": "2020-040A", "EPOCH": "2025-12-22T13:41:28.900032", "MEAN_MOTION": 1.00269249, "ECCENTRICITY": 0.00065352, "INCLINATION": 2.0136, "RA_OF_ASC_NODE": 66.6637, "ARG_OF_PERICENTER": 309.2125, "MEAN_ANOMALY": 31.4295, "EPHEMERIS_TYPE": 0, "CLASSIFICATION_TYPE": "U", "NORAD_CAT_ID": 45807, "ELEMENT_SET_NO": 999, "REV_AT_EPOCH": 2029, "BSTAR": 0, "MEAN_MOTION_DOT": -3.33e-06, "MEAN_MOTION_DDOT": 0}, "tle": {"line1": "1 45807U 20040A   25356.57047338 -.00000333  00000+0  00000+0 0  9996", "line2": "2 45807   2.0136  66.6637 0006535 309.2125  31.4295  1.00269249 20293"}}, "geometry": {"type": "Point", "coordinates": [153.2074784029386, 2.025569081834768]}}, {"type": "Feature", "properties": {"norad_id": 56564, "name": "BEIDOU-3 G4 (C62)", "group": "beidou", "lat": -0.7889515500573479, "lon": -157.3305446554426, "alt_km": 35776.967412379985, "timestamp": "2025-12-22T20:43:46.114356+00:00", "meta": {"OBJECT_NAME": "BEIDOU-3 G4 (C62)", "OBJECT_ID": "2023-066A", "EPOCH": "2025-12-22T14:50:38.567616", "MEAN_MOTION": 1.00271266, "ECCENTRICITY": 0.00026585, "INCLINATION": 0.7946, "RA_OF_ASC_NODE": 302.8024, "ARG_OF_PERICENTER": 227.0981, "MEAN_ANOMALY": 304.2399, "EPHEMERIS_TYPE": 0, "CLASSIFICATION_TYPE": "U", "NORAD_CAT_ID": 56564, "ELEMENT_SET_NO": 999, "REV_AT_EPOCH": 962, "BSTAR": 0, "MEAN_MOTION_DOT": -8.9e-07, "MEAN_MOTION_DDOT": 0}, "tle": {"line1": "1 56564U 23066A   25356.61850194 -.00000089  00000+0  00000+0 0  9994", "line2": "2 56564   0.7946 302.8024 0002658 227.0981 304.2399  1.00271266  9625"}}, "geometry": {"type": "Point", "coordinates": [-157.3305446554426, -0.7889515500573479]}}, {"type": "Feature", "properties": {"norad_id": 58654, "name": "BEIDOU-3 M28 (C50)", "group": "beidou", "lat": 24.52170286639628, "lon": -129.91454759627743, "alt_km": 21529.63347685485, "timestamp": "2025-12-22T20:43:46.114367+00:00", "meta": {"OBJECT_NAME": "BEIDOU-3 M28 (C50)", "OBJECT_ID": "2023-207A", "EPOCH": "2025-12-22T02:28:45.780096", "MEAN_MOTION": 1.86229752, "ECCENTRICITY": 0.00028015, "INCLINATION": 55.5924, "RA_OF_ASC_NODE": 68.2843, "ARG_OF_PERICENTER": 274.1973, "MEAN_ANOMALY": 85.8199, "EPHEMERIS_TYPE": 0, "CLASSIFICATION_TYPE": "U", "NORAD_CAT_ID": 58654, "ELEMENT_SET_NO": 999, "REV_AT_EPOCH": 1354, "BSTAR": 0, "MEAN_MOTION_DOT": -3.2e-07, "MEAN_MOTION_DDOT": 0}, "tle": {"line1": "1 58654U 23207A   25356.10330764 -.00000032  00000+0  00000+0 0  9991", "line2": "2 58654  55.5924  68.2843 0002801 274.1973  85.8199  1.86229752 13540"}}, "geometry": {"type": "Point", "coordinates": [-129.91454759627743, 24.52170286639628]}}, {"type": "Feature", "properties": {"norad_id": 58655, "name": "BEIDOU-3 M26 (C48)", "group": "beidou", "lat": -52.6648904486462, "lon": 4.473106703572592, "alt_km": 21523.358370706424, "timestamp": "2025-12-22T20:43:46.114378+00:00", "meta": {"OBJECT_NAME": "BEIDOU-3 M26 (C48)", "OBJECT_ID": "2023-207B", "EPOCH": "2025-12-22T10:30:28.326240", "MEAN_MOTION": 1.86231247, "ECCENTRICITY": 0.00041599, "INCLINATION": 55.5947, "RA_OF_ASC_NODE": 68.2593, "ARG_OF_PERICENTER": 259.3765, "MEAN_ANOMALY": 100.6271, "EPHEMERIS_TYPE": 0, "CLASSIFICATION_TYPE": "U", "NORAD_CAT_ID": 58655, "ELEMENT_SET_NO": 999, "REV_AT_EPOCH": 1353, "BSTAR": 0, "MEAN_MOTION_DOT": -3e-07, "MEAN_MOTION_DDOT": 0}, "tle": {"line1": "1 58655U 23207B   25356.43782785 -.00000030  00000+0  00000+0 0  9990", "line2": "2 58655  55.5947  68.2593 0004159 259.3765 100.6271  1.86231247 13538"}}, "geometry": {"type": "Point", "coordinates": [4.473106703572592, -52.6648904486462]}}]}